FENGYUN 1C DEB          
1 31033U 99025BEB 17345.37227117  .00000083  00000-0  47910-4 0  9991
2 31033  98.5655  34.8917 0160050  37.3391  21.7890 14.24362681557078
